NORAD_CAT_ID,OBJECT_NAME,OBJECT_TYPE,EPOCH,MEAN_MOTION,ECCENTRICITY,INCLINATION,RA_OF_ASC_NODE,ARG_OF_PERICENTER,MEAN_ANOMALY,BSTAR,MEAN_MOTION_DOT,MEAN_MOTION_DDOT,TLE_LINE0,TLE_LINE1,TLE_LINE2,SEMIMAJOR_AXIS,PERIOD,APOGEE,PERIGEE,DECAYED
55677.0,STARLINK-5324,PAYLOAD,2024-01-17 19:55:01,14.98324972,0.0002681,70.0013,315.7623,250.2616,109.8254,6.3027e-05,6.59e-06,0.0,0 STARLINK-5324,1 55677U 23021BB  24017.82988055  .00000659  00000-0  63027-4 0  9999,2 55677  70.0013 315.7623 0002681 250.2616 109.8254 14.98324972 52363,6950.208,96.107,573.937,570.21,0.0
55677.0,STARLINK-5324,PAYLOAD,2024-01-17 21:31:09,14.98309219,0.0002634,70.0019,315.5935,257.372,102.7145,0.00037873,4.426e-05,0.0,0 STARLINK-5324,1 55677U 23021BB  24017.89664007  .00004426  00000-0  37873-3 0  9999,2 55677  70.0019 315.5935 0002634 257.3720 102.7145 14.98309219 52677,6950.257,96.108,573.953,570.291,0.0
55677.0,STARLINK-5324,PAYLOAD,2024-01-18 05:31:50,14.98326135,0.0002686,70.0014,314.7526,251.0193,109.0676,6.3551e-05,6.65e-06,0.0,0 STARLINK-5324,1 55677U 23021BB  24018.23044072  .00000665  00000-0  63551-4 0  9996,2 55677  70.0014 314.7526 0002686 251.0193 109.0676 14.98326135 52722,6950.205,96.107,573.937,570.203,0.0
55677.0,STARLINK-5324,PAYLOAD,2024-01-18 19:57:02,14.98334885,0.0002625,70.0017,313.239,246.5649,113.5234,-2.5237e-05,-3.94e-06,0.0,0 STARLINK-5324,1 55677U 23021BB  24018.83127773 -.00000394  00000-0 -25237-4 0  9992,2 55677  70.0017 313.2390 0002625 246.5649 113.5234 14.98334885 52514,6950.178,96.107,573.867,570.218,0.0
55677.0,STARLINK-5324,PAYLOAD,2024-01-18 21:33:10,14.9833419,0.0002635,70.0016,313.0709,246.8295,113.2586,-3.3489e-05,-4.93e-06,0.0,0 STARLINK-5324,1 55677U 23021BB  24018.89803817 -.00000493  00000-0 -33489-4 0  9996,2 55677  70.0016 313.0709 0002635 246.8295 113.2586 14.98334190 52826,6950.18,96.107,573.876,570.214,0.0
55677.0,STARLINK-5324,PAYLOAD,2024-01-19 05:33:50,14.98335083,0.0002603,70.0016,312.2288,249.9989,110.089,-1.6979e-05,-2.96e-06,0.0,0 STARLINK-5324,1 55677U 23021BB  24019.23183638 -.00000296  00000-0 -16979-4 0  9993,2 55677  70.0016 312.2288 0002603 249.9989 110.0890 14.98335083 52878,6950.177,96.107,573.851,570.233,0.0
55677.0,STARLINK-5324,PAYLOAD,2024-01-19 19:59:03,14.98327356,0.000256,70.0017,310.714,249.1297,110.9588,-5.2829e-06,-1.56e-06,0.0,0 STARLINK-5324,1 55677U 23021BB  24019.83268019 -.00000156  00000-0 -52829-5 0  9996,2 55677  70.0017 310.7140 0002560 249.1297 110.9588 14.98327356 52669,6950.201,96.107,573.845,570.287,0.0
55677.0,STARLINK-5324,PAYLOAD,2024-01-19 23:11:19,14.98327335,0.0002565,70.0017,310.3776,248.5997,111.4888,-6.4847e-06,-1.7e-06,0.0,0 STARLINK-5324,1 55677U 23021BB  24019.96620037 -.00000170  00000-0 -64847-5 0  9991,2 55677  70.0017 310.3776 0002565 248.5997 111.4888 14.98327335 52986,6950.201,96.107,573.849,570.283,0.0
55677.0,STARLINK-5324,PAYLOAD,2024-01-20 05:35:51,14.98331428,0.0002579,70.0017,309.703,257.5282,102.5588,2.0097e-05,1.47e-06,0.0,0 STARLINK-5324,1 55677U 23021BB  24020.23323743  .00000147  00000-0  20097-4 0  9997,2 55677  70.0017 309.7030 0002579 257.5282 102.5588 14.98331428 53025,6950.188,96.107,573.846,570.261,0.0
55677.0,STARLINK-5324,PAYLOAD,2024-01-20 20:01:04,14.98329155,0.0002272,70.0019,308.1877,260.4108,99.6795,3.639e-05,3.41e-06,0.0,0 STARLINK-5324,1 55677U 23021BB  24020.83407822  .00000341  00000-0  36390-4 0  9993,2 55677  70.0019 308.1877 0002272 260.4108  99.6795 14.98329155 52815,6950.196,96.107,573.64,570.481,0.0
55677.0,STARLINK-5324,PAYLOAD,2024-01-20 23:13:20,14.98327731,0.0002422,70.0018,307.8509,260.2733,99.8153,2.6875e-05,2.28e-06,0.0,0 STARLINK-5324,1 55677U 23021BB  24020.96759915  .00000228  00000-0  26875-4 0  9991,2 55677  70.0018 307.8509 0002422 260.2733  99.8153 14.98327731 53135,6950.2,96.107,573.748,570.382,0.0
55677.0,STARLINK-5324,PAYLOAD,2024-01-21 04:01:44,14.98328127,0.0002467,70.0016,307.3459,261.0979,98.99,3.1833e-05,2.87e-06,0.0,0 STARLINK-5324,1 55677U 23021BB  24021.16787894  .00000287  00000-0  31833-4 0  9996,2 55677  70.0016 307.3459 0002467 261.0979  98.9900 14.98328127 53165,6950.199,96.107,573.778,570.349,0.0
55677.0,STARLINK-5324,PAYLOAD,2024-01-21 20:03:05,14.98315579,0.0002664,70.0014,305.6622,266.6357,93.4497,0.00020289,2.328e-05,0.0,0 STARLINK-5324,1 55677U 23021BB  24021.83548044  .00002328  00000-0  20289-3 0  9992,2 55677  70.0014 305.6622 0002664 266.6357  93.4497 14.98315579 52961,6950.237,96.108,573.954,570.251,0.0
55677.0,STARLINK-5324,PAYLOAD,2024-01-21 21:39:13,14.98316532,0.0002686,70.0013,305.4941,267.7449,92.3403,0.00017701,2.019e-05,0.0,0 STARLINK-5324,1 55677U 23021BB  24021.90224119  .00002019  00000-0  17701-3 0  9996,2 55677  70.0013 305.4941 0002686 267.7449  92.3403 14.98316532 53270,6950.235,96.108,573.966,570.233,0.0
55677.0,STARLINK-5324,PAYLOAD,2024-01-22 04:03:45,14.98320286,0.0002537,70.0015,304.8209,262.1962,97.8909,0.00015818,1.794e-05,0.0,0 STARLINK-5324,1 55677U 23021BB  24022.16928073  .00001794  00000-0  15818-3 0  9991,2 55677  70.0015 304.8209 0002537 262.1962  97.8909 14.98320286 53313,6950.223,96.108,573.851,570.325,0.0
55677.0,STARLINK-5324,PAYLOAD,2024-01-22 20:05:06,14.98330587,0.0002486,70.0012,303.1374,260.7327,99.3551,1.2275e-05,5.4e-07,0.0,0 STARLINK-5324,1 55677U 23021BB  24022.83687730  .00000054  00000-0  12275-4 0  9990,2 55677  70.0012 303.1374 0002486 260.7327  99.3551 14.98330587 53110,6950.191,96.107,573.784,570.328,0.0
55677.0,STARLINK-5324,PAYLOAD,2024-01-22 21:41:14,14.983307,0.0002489,70.0012,302.969,260.4285,99.6593,1.2714e-05,5.9e-07,0.0,0 STARLINK-5324,1 55677U 23021BB  24022.90363709  .00000059  00000-0  12714-4 0  9998,2 55677  70.0012 302.9690 0002489 260.4285  99.6593 14.98330700 53421,6950.191,96.107,573.786,570.326,0.0
55677.0,STARLINK-5324,PAYLOAD,2024-01-23 04:05:46,14.98332932,0.0002443,70.0013,302.296,259.1872,100.9012,4.0198e-05,3.87e-06,0.0,0 STARLINK-5324,1 55677U 23021BB  24023.17067460  .00000387  00000-0  40198-4 0  9994,2 55677  70.0013 302.2960 0002443 259.1872 100.9012 14.98332932 53467,6950.184,96.107,573.747,570.351,0.0
55677.0,STARLINK-5324,PAYLOAD,2024-01-23 21:43:15,14.98328701,0.0002391,70.0016,300.445,249.4235,110.6668,1.2154e-05,5.2e-07,0.0,0 STARLINK-5324,1 55677U 23021BB  24023.90503706  .00000052  00000-0  12154-4 0  9993,2 55677  70.0016 300.4450 0002391 249.4235 110.6668 14.98328701 53577,6950.197,96.107,573.724,570.4,0.0
55677.0,STARLINK-5324,PAYLOAD,2024-01-24 02:31:39,14.98326599,0.0002424,70.0015,299.9402,251.9122,108.1773,-1.497e-05,-2.71e-06,0.0,0 STARLINK-5324,1 55677U 23021BB  24024.10531952 -.00000271  00000-0 -14970-4 0  9993,2 55677  70.0015 299.9402 0002424 251.9122 108.1773 14.98326599 53308,6950.203,96.107,573.753,570.384,0.0
55677.0,STARLINK-5324,PAYLOAD,2024-01-24 04:07:47,14.98327446,0.0002421,70.0016,299.7721,252.0512,108.0383,-5.1884e-06,-1.55e-06,0.0,0 STARLINK-5324,1 55677U 23021BB  24024.17207890 -.00000155  00000-0 -51884-5 0  9998,2 55677  70.0016 299.7721 0002421 252.0512 108.0383 14.98327446 53615,6950.201,96.107,573.748,570.383,0.0
55677.0,STARLINK-5324,PAYLOAD,2024-01-24 21:45:16,14.98332541,0.0002563,70.0013,297.9216,250.6907,109.3975,-2.8083e-05,-4.28e-06,0.0,0 STARLINK-5324,1 55677U 23021BB  24024.90643562 -.00000428  00000-0 -28083-4 0  9996,2 55677  70.0013 297.9216 0002563 250.6907 109.3975 14.98332541 53725,6950.185,96.107,573.831,570.269,0.0
55677.0,STARLINK-5324,PAYLOAD,2024-01-25 02:33:40,14.98331186,0.0002584,70.0012,297.4166,252.1279,107.9598,-4.2634e-05,-6.02e-06,0.0,0 STARLINK-5324,1 55677U 23021BB  24025.10671673 -.00000602  00000-0 -42634-4 0  9995,2 55677  70.0012 297.4166 0002584 252.1279 107.9598 14.98331186 53454,6950.189,96.107,573.85,570.258,0.0
55677.0,STARLINK-5324,PAYLOAD,2024-01-25 04:09:48,14.98331106,0.0002586,70.0012,297.2481,253.5324,106.5551,-4.2498e-05,-6e-06,0.0,0 STARLINK-5324,1 55677U 23021BB  24025.17347682 -.00000600  00000-0 -42498-4 0  9998,2 55677  70.0012 297.2481 0002586 253.5324 106.5551 14.98331106 53760,6950.189,96.107,573.852,570.257,0.0
55677.0,STARLINK-5324,PAYLOAD,2024-01-25 21:47:17,14.98327513,0.0002668,70.001,295.3965,253.2713,106.8153,-8.9896e-06,-2e-06,0.0,0 STARLINK-5324,1 55677U 23021BB  24025.90783843 -.00000200  00000-0 -89896-5 0  9992,2 55677  70.0010 295.3965 0002668 253.2713 106.8153 14.98327513 53874,6950.201,96.107,573.92,570.211,0.0
55677.0,STARLINK-5324,PAYLOAD,2024-01-26 02:35:41,14.98329551,0.000263,70.001,294.8918,250.4782,109.6094,1.7771e-05,1.19e-06,0.0,0 STARLINK-5324,1 55677U 23021BB  24026.10811647  .00000119  00000-0  17771-4 0  9998,2 55677  70.0010 294.8918 0002630 250.4782 109.6094 14.98329551 53600,6950.194,96.107,573.887,570.231,0.0
55677.0,STARLINK-5324,PAYLOAD,2024-01-26 04:11:49,14.98329418,0.0002622,70.001,294.7232,252.5164,107.5709,1.6449e-05,1.03e-06,0.0,0 STARLINK-5324,1 55677U 23021BB  24026.17487676  .00000103  00000-0  16449-4 0  9990,2 55677  70.0010 294.7232 0002622 252.5164 107.5709 14.98329418 53912,6950.195,96.107,573.882,570.237,0.0
55677.0,STARLINK-5324,PAYLOAD,2024-01-27 02:37:42,14.98327224,0.0002598,70.0009,292.3659,251.5155,108.5722,-1.8299e-06,-1.15e-06,0.0,0 STARLINK-5324,1 55677U 23021BB  24027.10951868 -.00000115  00000-0 -18299-5 0  9994,2 55677  70.0009 292.3659 0002598 251.5155 108.5722 14.98327224 53759,6950.201,96.107,573.872,570.261,0.0
55677.0,STARLINK-5324,PAYLOAD,2024-01-27 20:15:10,14.98333432,0.0002695,70.0006,290.5139,254.0287,106.0576,3.6424e-05,3.42e-06,0.0,0 STARLINK-5324,1 55677U 23021BB  24027.84387333  .00000342  00000-0  36424-4 0  9994,2 55677  70.0006 290.5139 0002695 254.0287 106.0576 14.98333432 53861,6950.182,96.107,573.92,570.174,0.0
55677.0,STARLINK-5324,PAYLOAD,2024-01-27 21:51:18,14.98333427,0.0002696,70.0006,290.3456,254.006,106.0802,3.5855e-05,3.35e-06,0.0,0 STARLINK-5324,1 55677U 23021BB  24027.91063314  .00000335  00000-0  35855-4 0  9991,2 55677  70.0006 290.3456 0002696 254.0060 106.0802 14.98333427 54172,6950.182,96.107,573.921,570.174,0.0
